NORAD_CAT_ID,OBJECT_NAME,OBJECT_TYPE,EPOCH,MEAN_MOTION,ECCENTRICITY,INCLINATION,RA_OF_ASC_NODE,ARG_OF_PERICENTER,MEAN_ANOMALY,BSTAR,MEAN_MOTION_DOT,MEAN_MOTION_DDOT,TLE_LINE0,TLE_LINE1,TLE_LINE2,SEMIMAJOR_AXIS,PERIOD,APOGEE,PERIGEE,DECAYED
53560.0,STARLINK-4564,PAYLOAD,2022-11-19 14:00:01,15.08838653,0.0001496,53.2151,68.7166,63.0569,219.9391,0.00018521,2.661e-05,0.0,0 STARLINK-4564,1 53560U 22101AK  22323.58334491  .00002661  00000-0  18521-3 0  9999,2 53560  53.2151  68.7166 0001496  63.0569 219.9391 15.08838653  1306,6917.885,95.438,540.784,538.715,0.0
53560.0,STARLINK-4564,PAYLOAD,2022-11-19 22:00:00,15.08857558,0.0001359,53.2148,67.2197,60.538,234.0513,-0.0033058,-0.00052541,0.0,0 STARLINK-4564,1 53560U 22101AK  22323.91667824 -.00052541  00000-0 -33058-2 0  9990,2 53560  53.2148  67.2197 0001359  60.5380 234.0513 15.08857558 14416,6917.8269999999975,95.436,540.632,538.752,0.0
53560.0,STARLINK-4564,PAYLOAD,2022-11-20 14:00:01,15.08835273,0.0001394,53.215,64.2276,60.4085,257.3585,0.00030827,4.621e-05,0.0,0 STARLINK-4564,1 53560U 22101AK  22324.58334491  .00004621  00000-0  30827-3 0  9991,2 53560  53.2150  64.2276 0001394  60.4085 257.3585 15.08835273 14512,6917.895,95.438,540.724,538.795,0.0
53560.0,STARLINK-4564,PAYLOAD,2022-11-20 22:00:00,15.08873966,0.0001375,53.2147,62.7305,59.9794,269.3731,-0.0045702,-0.00072359,0.0,0 STARLINK-4564,1 53560U 22101AK  22324.91667824 -.00072359  00000-0 -45702-2 0  9999,2 53560  53.2147  62.7305 0001375  59.9794 269.3731 15.08873966  1303,6917.776999999999,95.435,540.5930000000002,538.69,0.0
53560.0,STARLINK-4564,PAYLOAD,2022-11-21 14:00:01,15.08834084,0.0001534,53.215,59.7385,61.1283,291.4195,0.00070277,0.00010912,0.0,0 STARLINK-4564,1 53560U 22101AK  22325.58334491  .00010912  00000-0  70277-3 0  9995,2 53560  53.2150  59.7385 0001534  61.1283 291.4195 15.08834084  1304,6917.898,95.438,540.825,538.702,0.0
53560.0,STARLINK-4564,PAYLOAD,2022-11-21 22:00:00,15.08869045,0.0001437,53.2148,58.2413,59.6869,304.449,-0.0023288,-0.00037189,0.0,0 STARLINK-4564,1 53560U 22101AK  22325.91667824 -.00037189  00000-0 -23288-2 0  9997,2 53560  53.2148  58.2413 0001437  59.6869 304.4490 15.08869045 14718,6917.792,95.436,540.651,538.663,0.0
53560.0,STARLINK-4564,PAYLOAD,2022-11-22 00:00:00,15.08862522,0.0001388,53.2151,57.8667,62.5834,34.4586,-0.0018997,-0.00030413,0.0,0 STARLINK-4564,1 53560U 22101AK  22326.00001157 -.00030413  00000-0 -18997-2 0  9993,2 53560  53.2151  57.8667 0001388  62.5834  34.4586 15.08862522  1308,6917.812,95.436,540.637,538.716,0.0
53560.0,STARLINK-4564,PAYLOAD,2022-11-22 14:00:01,15.08861579,0.00014,53.2162,55.2517,61.5408,325.8667,-0.0054068999999999,-0.0008537,0.0,0 STARLINK-4564,1 53560U 22101AK  22326.58335648 -.00085370  00000-0 -54069-2 0  9993,2 53560  53.2162  55.2517 0001400  61.5408 325.8667 15.08861579  1305,6917.814,95.436,540.648,538.711,0.0
53560.0,STARLINK-4564,PAYLOAD,2022-11-22 22:00:00,15.08874093,0.0001467,53.2152,53.7521,56.9607,341.9785,-0.0042751,-0.0006775,0.0,0 STARLINK-4564,1 53560U 22101AK  22326.91667824 -.00067750  00000-0 -42751-2 0  9991,2 53560  53.2152  53.7521 0001467  56.9607 341.9785 15.08874093 14864,6917.776,95.435,540.656,538.626,0.0
53560.0,STARLINK-4564,PAYLOAD,2022-11-23 14:00:01,15.08837213,0.000161,53.2156,50.7604,55.7931,6.3409,-0.0020206,-0.000323,0.0,0 STARLINK-4564,1 53560U 22101AK  22327.58334491 -.00032300  00000-0 -20206-2 0  9990,2 53560  53.2156  50.7604 0001610  55.7931   6.3409 15.08837213 14963,6917.889,95.438,540.868,538.64,0.0
53560.0,STARLINK-4564,PAYLOAD,2022-11-24 00:00:00,15.08813898,0.0001419,53.2159,48.8885,56.6937,109.9181,0.0010357,0.00016222,0.0,0 STARLINK-4564,1 53560U 22101AK  22328.00001157  .00016222  00000-0  10357-2 0  9997,2 53560  53.2159  48.8885 0001419  56.6937 109.9181 15.08813898  1302,6917.96,95.439,540.807,538.844,0.0
53560.0,STARLINK-4564,PAYLOAD,2022-11-24 06:00:02,15.0882657,0.0001464,53.216,47.76600000000001,60.6648,24.6818,0.001175,0.00018455,0.0,0 STARLINK-4564,1 53560U 22101AK  22328.25002315  .00018455  00000-0  11750-2 0  9999,2 53560  53.2160  47.7660 0001464  60.6648  24.6818 15.08826570 15066,6917.920999999999,95.438,540.799,538.774,0.0
53560.0,STARLINK-4564,PAYLOAD,2022-11-24 14:00:01,15.0882335,0.0001623,53.216,46.2715,52.8919,43.9817,0.0015833,0.00024989,0.0,0 STARLINK-4564,1 53560U 22101AK  22328.58334491  .00024989  00000-0  15833-2 0  9993,2 53560  53.2160  46.2715 0001623  52.8919  43.9817 15.08823350  1300,6917.931,95.439,540.919,538.674,0.0
53560.0,STARLINK-4564,PAYLOAD,2022-11-24 22:00:00,15.08861256,0.0001501,53.2161,44.7739,53.9157,54.5418,-0.0020839,-0.00033319,0.0,0 STARLINK-4564,1 53560U 22101AK  22328.91667824 -.00033319  00000-0 -20839-2 0  9990,2 53560  53.2161  44.7739 0001501  53.9157  54.5418 15.08861256  1303,6917.815,95.436,540.719,538.6419999999998,0.0
53560.0,STARLINK-4564,PAYLOAD,2022-11-25 06:00:00,15.08841398,0.0001415,53.2163,43.277,57.7094,62.3519,-0.00063218,-0.00010335,0.0,0 STARLINK-4564,1 53560U 22101AK  22329.25001157 -.00010335  00000-0 -63218-3 0  9991,2 53560  53.2163  43.2770 0001415  57.7094  62.3519 15.08841398 15219,6917.876,95.437,540.72,538.762,0.0
53560.0,STARLINK-4564,PAYLOAD,2022-11-25 14:00:01,15.08819144,0.0001556,53.2162,41.7824,48.7659,82.8925,0.0022053,0.00034964,0.0,0 STARLINK-4564,1 53560U 22101AK  22329.58334491  .00034964  00000-0  22053-2 0  9990,2 53560  53.2162  41.7824 0001556  48.7659  82.8925 15.08819144  1301,6917.944,95.439,540.886,538.7330000000002,0.0
53560.0,STARLINK-4564,PAYLOAD,2022-11-26 00:00:00,15.08836613,0.00014,53.2162,39.9102,53.0825,183.0735,0.0023531,0.00037357,0.0,0 STARLINK-4564,1 53560U 22101AK  22330.00001157  .00037357  00000-0  23531-2 0  9990,2 53560  53.2162  39.9102 0001400  53.0825 183.0735 15.08836613  1304,6917.891,95.438,540.724,538.7869999999998,0.0
53560.0,STARLINK-4564,PAYLOAD,2022-11-26 06:00:00,15.0888009,0.0001462,53.2163,38.7879,57.3544,97.4957,-0.0020624,-0.00032997,0.0,0 STARLINK-4564,1 53560U 22101AK  22330.25001157 -.00032997  00000-0 -20624-2 0  9994,2 53560  53.2163  38.7879 0001462  57.3544  97.4957 15.08880090 15369,6917.7580000000025,95.435,540.634,538.611,0.0
53560.0,STARLINK-4564,PAYLOAD,2022-11-26 14:00:01,15.088286600000002,0.0001675999999999,53.2161,37.2931,50.6107,115.875,0.002164,0.0003431,0.0,0 STARLINK-4564,1 53560U 22101AK  22330.58334491  .00034310  00000-0  21640-2 0  9998,2 53560  53.2161  37.2931 0001676  50.6107 115.8750 15.08828660  1308,6917.915,95.438,540.939,538.621,0.0
53560.0,STARLINK-4564,PAYLOAD,2022-11-26 22:00:00,15.08848657,0.0001599,53.2158,35.7952,56.4947,121.5909,-0.0018355,-0.00029388,0.0,0 STARLINK-4564,1 53560U 22101AK  22330.91667824 -.00029388  00000-0 -18355-2 0  9994,2 53560  53.2158  35.7952 0001599  56.4947 121.5909 15.08848657  1308,6917.854,95.437,540.825,538.613,0.0
53560.0,STARLINK-4564,PAYLOAD,2022-11-27 06:00:00,15.08847265,0.0001676999999999,53.216,34.2987,62.2457,127.426,-0.0024373,-0.00038877,0.0,0 STARLINK-4564,1 53560U 22101AK  22331.25001157 -.00038877  00000-0 -24373-2 0  9993,2 53560  53.2160  34.2987 0001677  62.2457 127.4260 15.08847265 15518,6917.858,95.437,540.883,538.563,0.0
53560.0,STARLINK-4564,PAYLOAD,2022-11-27 14:00:01,15.08796979,0.0001851,53.2157,32.8038,55.5309,145.7321,0.0029621,0.00047114,0.0,0 STARLINK-4564,1 53560U 22101AK  22331.58334491  .00047114  00000-0  29621-2 0  9992,2 53560  53.2157  32.8038 0001851  55.5309 145.7321 15.08796979  1308,6918.012,95.44,541.1569999999998,538.596,0.0
53560.0,STARLINK-4564,PAYLOAD,2022-11-27 22:00:00,15.08826439,0.0001706999999999,53.2154,31.3058,60.2397,152.5881,0.00010352,1.359e-05,0.0,0 STARLINK-4564,1 53560U 22101AK  22331.91667824  .00001359  00000-0  10352-3 0  9991,2 53560  53.2154  31.3058 0001707  60.2397 152.5881 15.08826439 15612,6917.922,95.438,540.9680000000002,538.606,0.0
53560.0,STARLINK-4564,PAYLOAD,2022-11-28 00:00:00,15.08805968,0.0001689,53.2153,30.9314,62.0311,243.6984,0.0029781,0.00047383,0.0,0 STARLINK-4564,1 53560U 22101AK  22332.00001157  .00047383  00000-0  29781-2 0  9995,2 53560  53.2153  30.9314 0001689  62.0311 243.6984 15.08805968  1307,6917.984,95.44,541.018,538.681,0.0
53560.0,STARLINK-4564,PAYLOAD,2022-11-28 22:00:01,15.08827943,0.0001636,53.2151,26.8162,58.2656,189.408,0.00016672,2.365e-05,0.0,0 STARLINK-4564,1 53560U 22101AK  22332.91668981  .00002365  00000-0  16672-3 0  9996,2 53560  53.2151  26.8162 0001636  58.2656 189.4080 15.08827943 15767,6917.917,95.438,540.914,538.65,0.0
53560.0,STARLINK-4564,PAYLOAD,2022-11-29 14:00:01,15.08827831,0.0001768,53.215,23.825,52.2279,218.6319,0.00095719,0.00014973,0.0,0 STARLINK-4564,1 53560U 22101AK  22333.58335648  .00014973  00000-0  95719-3 0  9998,2 53560  53.2150  23.8250 0001768  52.2279 218.6319 15.08827831  1303,6917.918000000002,95.438,541.006,538.559,0.0
53560.0,STARLINK-4564,PAYLOAD,2022-11-29 22:00:00,15.08821558,0.0001601,53.2151,22.3268,55.7054,226.6827,0.0013204,0.00020778,0.0,0 STARLINK-4564,1 53560U 22101AK  22333.91667824  .00020778  00000-0  13204-2 0  9997,2 53560  53.2151  22.3268 0001601  55.7054 226.6827 15.08821558  1305,6917.937,95.439,540.909,538.694,0.0
53560.0,STARLINK-4564,PAYLOAD,2022-11-30 06:00:00,15.08855368,0.0001664,53.2151,20.8307,57.3726,236.5925,-0.00073529,-0.00011976,0.0,0 STARLINK-4564,1 53560U 22101AK  22334.25001157 -.00011976  00000-0 -73529-3 0  9995,2 53560  53.2151  20.8307 0001664  57.3726 236.5925 15.08855368 15978,6917.833000000001,95.437,540.85,538.547,0.0
53560.0,STARLINK-4564,PAYLOAD,2022-11-30 14:00:01,15.08833199,0.0001754999999999,53.2153,19.3359,49.0344,256.6064,0.0006723,0.00010426,0.0,0 STARLINK-4564,1 53560U 22101AK  22334.58335648  .00010426  00000-0  67230-3 0  9995,2 53560  53.2153  19.3359 0001755  49.0344 256.6064 15.08833199  1302,6917.901,95.438,540.98,538.552,0.0
